[
    {
        "Altitude(m)": 556769.5438113159,
        "Argument of Periapsis(deg)": 0.019868973332140504,
        "Eccentricity": 0.0,
        "Inclination(deg)": 53.0,
        "Latitude(deg)": 39.198285709281926,
        "Longitude(deg)": 40.294505047791574,
        "Mean Anomaly(deg)": 52.092978602732764,
        "RAAN(deg)": 104.97043010558406,
        "Satellite Name": "Starlink Shell 1 463",
        "Satellite Number": 463,
        "Semi-Major Axis(m)": 6931778.249405717,
        "Time(s)": 570
    },
    {
        "Altitude(m)": 556852.8406776299,
        "Argument of Periapsis(deg)": 0.02021755181165174,
        "Eccentricity": 0.0,
        "Inclination(deg)": 53.0,
        "Latitude(deg)": 39.59395400423094,
        "Longitude(deg)": 40.882247361542646,
        "Mean Anomaly(deg)": 52.71980980628946,
        "RAAN(deg)": 104.96991133550658,
        "Satellite Name": "Starlink Shell 1 463",
        "Satellite Number": 463,
        "Semi-Major Axis(m)": 6931778.249405717,
        "Time(s)": 580
    },
    {
        "Altitude(m)": 556935.960234392,
        "Argument of Periapsis(deg)": 0.020566130291162974,
        "Eccentricity": 0.0,
        "Inclination(deg)": 53.0,
        "Latitude(deg)": 39.98615146578585,
        "Longitude(deg)": 41.47714865652624,
        "Mean Anomaly(deg)": 53.3466410098462,
        "RAAN(deg)": 104.9693925654291,
        "Satellite Name": "Starlink Shell 1 463",
        "Satellite Number": 463,
        "Semi-Major Axis(m)": 6931778.249405717,
        "Time(s)": 590
    },
    {
        "Altitude(m)": 557018.8485154976,
        "Argument of Periapsis(deg)": 0.020914708770674213,
        "Eccentricity": 0.0,
        "Inclination(deg)": 53.0,
        "Latitude(deg)": 40.37479078552472,
        "Longitude(deg)": 42.07932678211012,
        "Mean Anomaly(deg)": 53.973472213402914,
        "RAAN(deg)": 104.96887379535163,
        "Satellite Name": "Starlink Shell 1 463",
        "Satellite Number": 463,
        "Semi-Major Axis(m)": 6931778.249405717,
        "Time(s)": 600
    },
    {
        "Altitude(m)": 557101.4518828786,
        "Argument of Periapsis(deg)": 0.021263287250185448,
        "Eccentricity": 0.0,
        "Inclination(deg)": 53.0,
        "Latitude(deg)": 40.759782817046606,
        "Longitude(deg)": 42.688898469333736,
        "Mean Anomaly(deg)": 54.600303416959626,
        "RAAN(deg)": 104.96835502527418,
        "Satellite Name": "Starlink Shell 1 463",
        "Satellite Number": 463,
        "Semi-Major Axis(m)": 6931778.249405717,
        "Time(s)": 610
    },
    {
        "Altitude(m)": 557183.7170537189,
        "Argument of Periapsis(deg)": 0.021611865729696686,
        "Eccentricity": 0.0,
        "Inclination(deg)": 53.0,
        "Latitude(deg)": 41.141036564843645,
        "Longitude(deg)": 43.305979587893574,
        "Mean Anomaly(deg)": 55.22713462051634,
        "RAAN(deg)": 104.9678362551967,
        "Satellite Name": "Starlink Shell 1 463",
        "Satellite Number": 463,
        "Semi-Major Axis(m)": 6931778.249405717,
        "Time(s)": 620
    },
    {
        "Altitude(m)": 557265.5911274208,
        "Argument of Periapsis(deg)": 0.02196044420920792,
        "Eccentricity": 0.0,
        "Inclination(deg)": 53.0,
        "Latitude(deg)": 41.51845917646392,
        "Longitude(deg)": 43.9306837054659,
        "Mean Anomaly(deg)": 55.853965824073065,
        "RAAN(deg)": 104.96731748511922,
        "Satellite Name": "Starlink Shell 1 463",
        "Satellite Number": 463,
        "Semi-Major Axis(m)": 6931778.249405717,
        "Time(s)": 630
    },
    {
        "Altitude(m)": 557347.0216123789,
        "Argument of Periapsis(deg)": 0.02230902268871916,
        "Eccentricity": 0.0,
        "Inclination(deg)": 53.0,
        "Latitude(deg)": 41.89195593828986,
        "Longitude(deg)": 44.56312315130799,
        "Mean Anomaly(deg)": 56.48079702762976,
        "RAAN(deg)": 104.96679871504175,
        "Satellite Name": "Starlink Shell 1 463",
        "Satellite Number": 463,
        "Semi-Major Axis(m)": 6931778.249405717,
        "Time(s)": 640
    },
    {
        "Altitude(m)": 557427.9564524855,
        "Argument of Periapsis(deg)": 0.022657601168230398,
        "Eccentricity": 0.0,
        "Inclination(deg)": 53.0,
        "Latitude(deg)": 42.261430275261034,
        "Longitude(deg)": 45.20340754078223,
        "Mean Anomaly(deg)": 57.107628231186474,
        "RAAN(deg)": 104.96627994496427,
        "Satellite Name": "Starlink Shell 1 463",
        "Satellite Number": 463,
        "Semi-Major Axis(m)": 6931778.249405717,
        "Time(s)": 650
    },
    {
        "Altitude(m)": 557508.3440533971,
        "Argument of Periapsis(deg)": 0.023006179647741636,
        "Eccentricity": 0.0,
        "Inclination(deg)": 53.0,
        "Latitude(deg)": 42.626783754897275,
        "Longitude(deg)": 45.85164396285395,
        "Mean Anomaly(deg)": 57.73445943474321,
        "RAAN(deg)": 104.9657611748868,
        "Satellite Name": "Starlink Shell 1 463",
        "Satellite Number": 463,
        "Semi-Major Axis(m)": 6931778.249405717,
        "Time(s)": 660
    },
    {
        "Altitude(m)": 557588.1333085289,
        "Argument of Periapsis(deg)": 0.023354758127252868,
        "Eccentricity": 0.0,
        "Inclination(deg)": 53.0,
        "Latitude(deg)": 42.98791609598512,
        "Longitude(deg)": 46.507937149278995,
        "Mean Anomaly(deg)": 58.36129063829993,
        "RAAN(deg)": 104.96524240480935,
        "Satellite Name": "Starlink Shell 1 463",
        "Satellite Number": 463,
        "Semi-Major Axis(m)": 6931778.249405717,
        "Time(s)": 670
    },
    {
        "Altitude(m)": 557667.2736247774,
        "Argument of Periapsis(deg)": 0.023703336606764106,
        "Eccentricity": 0.0,
        "Inclination(deg)": 53.0,
        "Latitude(deg)": 43.34472518230496,
        "Longitude(deg)": 47.17238811237875,
        "Mean Anomaly(deg)": 58.98812184185664,
        "RAAN(deg)": 104.96472363473187,
        "Satellite Name": "Starlink Shell 1 463",
        "Satellite Number": 463,
        "Semi-Major Axis(m)": 6931778.249405717,
        "Time(s)": 680
    },
    {
        "Altitude(m)": 557745.7149479425,
        "Argument of Periapsis(deg)": 0.024051915086275345,
        "Eccentricity": 0.0,
        "Inclination(deg)": 53.0,
        "Latitude(deg)": 43.697107081794705,
        "Longitude(deg)": 47.84509427701902,
        "Mean Anomaly(deg)": 59.614953045413344,
        "RAAN(deg)": 104.96420486465438,
        "Satellite Name": "Starlink Shell 1 463",
        "Satellite Number": 463,
        "Semi-Major Axis(m)": 6931778.249405717,
        "Time(s)": 690
    },
    {
        "Altitude(m)": 557823.4077878683,
        "Argument of Periapsis(deg)": 0.024400493565786583,
        "Eccentricity": 0.0,
        "Inclination(deg)": 53.0,
        "Latitude(deg)": 44.0449560715509,
        "Longitude(deg)": 48.526149593891454,
        "Mean Anomaly(deg)": 60.24178424897004,
        "RAAN(deg)": 104.96368609457691,
        "Satellite Name": "Starlink Shell 1 463",
        "Satellite Number": 463,
        "Semi-Major Axis(m)": 6931778.249405717,
        "Time(s)": 700
    },
    {
        "Altitude(m)": 557900.3032432502,
        "Argument of Periapsis(deg)": 0.024749072045297815,
        "Eccentricity": 0.0,
        "Inclination(deg)": 53.0,
        "Latitude(deg)": 44.38816466907867,
        "Longitude(deg)": 49.215643121321115,
        "Mean Anomaly(deg)": 60.8686154525268,
        "RAAN(deg)": 104.96316732449944,
        "Satellite Name": "Starlink Shell 1 463",
        "Satellite Number": 463,
        "Semi-Major Axis(m)": 6931778.249405717,
        "Time(s)": 710
    },
    {
        "Altitude(m)": 557976.3530261305,
        "Argument of Periapsis(deg)": 0.025097650524809053,
        "Eccentricity": 0.0,
        "Inclination(deg)": 53.0,
        "Latitude(deg)": 44.72662367021437,
        "Longitude(deg)": 49.913659101585395,
        "Mean Anomaly(deg)": 61.49544665608349,
        "RAAN(deg)": 104.96264855442196,
        "Satellite Name": "Starlink Shell 1 463",
        "Satellite Number": 463,
        "Semi-Major Axis(m)": 6931778.249405717,
        "Time(s)": 720
    },
    {
        "Altitude(m)": 558051.5094860592,
        "Argument of Periapsis(deg)": 0.02544622900432029,
        "Eccentricity": 0.0,
        "Inclination(deg)": 53.0,
        "Latitude(deg)": 45.06022219414521,
        "Longitude(deg)": 50.620277019258246,
        "Mean Anomaly(deg)": 62.12227785964021,
        "RAAN(deg)": 104.96212978434448,
        "Satellite Name": "Starlink Shell 1 463",
        "Satellite Number": 463,
        "Semi-Major Axis(m)": 6931778.249405717,
        "Time(s)": 730
    },
    {
        "Altitude(m)": 558125.7256339034,
        "Argument of Periapsis(deg)": 0.02579480748383153,
        "Eccentricity": 0.0,
        "Inclination(deg)": 53.0,
        "Latitude(deg)": 45.3888477359509,
        "Longitude(deg)": 51.33557012926289,
        "Mean Anomaly(deg)": 62.74910906319691,
        "RAAN(deg)": 104.961611014267,
        "Satellite Name": "Starlink Shell 1 463",
        "Satellite Number": 463,
        "Semi-Major Axis(m)": 6931778.249405717,
        "Time(s)": 740
    },
    {
        "Altitude(m)": 558198.9551653072,
        "Argument of Periapsis(deg)": 0.026143385963342765,
        "Eccentricity": 0.0,
        "Inclination(deg)": 53.0,
        "Latitude(deg)": 45.712386227099415,
        "Longitude(deg)": 52.05960548112838,
        "Mean Anomaly(deg)": 63.375940266753624,
        "RAAN(deg)": 104.96109224418954,
        "Satellite Name": "Starlink Shell 1 463",
        "Satellite Number": 463,
        "Semi-Major Axis(m)": 6931778.249405717,
        "Time(s)": 750
    }
]